[{"OBJECT_NAME":"IRIDIUM 145","OBJECT_ID":"2018-030E","EPOCH":"2026-03-09T23:33:38.409120","MEAN_MOTION":14.34213927,"ECCENTRICITY":0.00019039,"INCLINATION":86.4013,"RA_OF_ASC_NODE":331.8973,"ARG_OF_PERICENTER":94.1139,"MEAN_ANOMALY":266.0275,"EPHEMERIS_TYPE":0,"CLASSIFICATION_TYPE":"U","NORAD_CAT_ID":43253,"ELEMENT_SET_NO":999,"REV_AT_EPOCH":41590,"BSTAR":0.00011521042,"MEAN_MOTION_DOT":3.42e-6,"MEAN_MOTION_DDOT":0},{"OBJECT_NAME":"CZ-6A DEB","OBJECT_ID":"2024-140RM","EPOCH":"2026-03-09T14:09:14.121792","MEAN_MOTION":14.40467717,"ECCENTRICITY":0.0035595,"INCLINATION":88.9591,"RA_OF_ASC_NODE":281.6158,"ARG_OF_PERICENTER":342.092,"MEAN_ANOMALY":17.9024,"EPHEMERIS_TYPE":0,"CLASSIFICATION_TYPE":"U","NORAD_CAT_ID":61167,"ELEMENT_SET_NO":999,"REV_AT_EPOCH":8113,"BSTAR":0.0013028,"MEAN_MOTION_DOT":4.186e-5,"MEAN_MOTION_DDOT":0}]
